{"type": "FeatureCollection", "features": [ {"type": "Feature", "properties": {"norad_id": 67162, "name": "ARIANE 6 R/B", "group": "last-30-days", "lat": 6.044207648219599, "lon": -77.18162436688668, "alt_km": 22917.35203283742, "timestamp": "2025-12-20T03:42:46.123757+00:00", "meta": {"OBJECT_NAME": "ARIANE 6 R/B", "OBJECT_ID": "2025-302C", "EPOCH": "2025-12-19T07:12:31.071168", "MEAN_MOTION": 1.73130298, "ECCENTRICITY": 2.56e-05, "INCLINATION": 54.2437, "RA_OF_ASC_NODE": 107.222, "ARG_OF_PERICENTER": 160.7324, "MEAN_ANOMALY": 199.2296, "EPHEMERIS_TYPE": 0, "CLASSIFICATION_TYPE": "U", "NORAD_CAT_ID": 67162, "ELEMENT_SET_NO": 999, "REV_AT_EPOCH": 8, "BSTAR": 0, "MEAN_MOTION_DOT": -5e-08, "MEAN_MOTION_DDOT": 0}, "tle": {"line1": "1 67162U 25302C   25353.30035962 -.00000005  00000+0  00000+0 0  9994", "line2": "2 67162  54.2437 107.2220 0000256 160.7324 199.2296  1.73130298    89"}}, "geometry": {"type": "Point", "coordinates": [-77.18162436688668, 6.044207648219599]}}, {"type": "Feature", "properties": {"norad_id": 67219, "name": "DISKSAT A", "group": "last-30-days", "lat": -22.914179306968798, "lon": 156.26355125225314, "alt_km": 550.4053380969326, "timestamp": "2025-12-20T03:42:46.123768+00:00", "meta": {"OBJECT_NAME": "DISKSAT A", "OBJECT_ID": "2025-305A", "EPOCH": "2025-12-18T06:11:23.597664", "MEAN_MOTION": 15.05868419, "ECCENTRICITY": 0.00043552, "INCLINATION": 45.0103, "RA_OF_ASC_NODE": 321.2665, "ARG_OF_PERICENTER": 276.2808, "MEAN_ANOMALY": 83.7571, "EPHEMERIS_TYPE": 0, "CLASSIFICATION_TYPE": "U", "NORAD_CAT_ID": 67219, "ELEMENT_SET_NO": 999, "REV_AT_EPOCH": 1, "BSTAR": 6.4032814e-05, "MEAN_MOTION_DOT": 7.05e-06, "MEAN_MOTION_DDOT": 0}, "tle": {"line1": "1 67219U 25305A   25352.25791201  .00000705  00000+0  64033-4 0  9995", "line2": "2 67219  45.0103 321.2665 0004355 276.2808  83.7571 15.05868419    14"}}, "geometry": {"type": "Point", "coordinates": [156.26355125225314, -22.914179306968798]}}, {"type": "Feature", "properties": {"norad_id": 67220, "name": "DISKSAT B", "group": "last-30-days", "lat": -20.908933153665853, "lon": 153.73009524466602, "alt_km": 552.4072748710432, "timestamp": "2025-12-20T03:42:46.123778+00:00", "meta": {"OBJECT_NAME": "DISKSAT B", "OBJECT_ID": "2025-305B", "EPOCH": "2025-12-18T06:11:23.538912", "MEAN_MOTION": 15.05411903, "ECCENTRICITY": 0.0003917, "INCLINATION": 45.0065, "RA_OF_ASC_NODE": 321.27, "ARG_OF_PERICENTER": 288.0087, "MEAN_ANOMALY": 72.0361, "EPHEMERIS_TYPE": 0, "CLASSIFICATION_TYPE": "U", "NORAD_CAT_ID": 67220, "ELEMENT_SET_NO": 999, "REV_AT_EPOCH": 1, "BSTAR": 0.00011832, "MEAN_MOTION_DOT": 1.486e-05, "MEAN_MOTION_DDOT": 0}, "tle": {"line1": "1 67220U 25305B   25352.25791133  .00001486  00000+0  11832-3 0  9996", "line2": "2 67220  45.0065 321.2700 0003917 288.0087  72.0361 15.05411903    16"}}, "geometry": {"type": "Point", "coordinates": [153.73009524466602, -20.908933153665853]}}, {"type": "Feature", "properties": {"norad_id": 67221, "name": "DISKSAT C", "group": "last-30-days", "lat": -42.2515553253492, "lon": -114.32892359958899, "alt_km": 481.32307597178533, "timestamp": "2025-12-20T03:42:46.123791+00:00", "meta": {"OBJECT_NAME": "DISKSAT C", "OBJECT_ID": "2025-305C", "EPOCH": "2025-12-18T06:11:31.580160", "MEAN_MOTION": 15.16973586, "ECCENTRICITY": 0.00625938, "INCLINATION": 45.0151, "RA_OF_ASC_NODE": 321.1654, "ARG_OF_PERICENTER": 307.7869, "MEAN_ANOMALY": 51.7353, "EPHEMERIS_TYPE": 0, "CLASSIFICATION_TYPE": "U", "NORAD_CAT_ID": 67221, "ELEMENT_SET_NO": 999, "REV_AT_EPOCH": 1, "BSTAR": 0.00014323237, "MEAN_MOTION_DOT": 2.734e-05, "MEAN_MOTION_DDOT": 0}, "tle": {"line1": "1 67221U 25305C   25352.25800440  .00002734  00000+0  14323-3 0  9994", "line2": "2 67221  45.0151 321.1654 0062593 307.7869  51.7353 15.16973586    19"}}, "geometry": {"type": "Point", "coordinates": [-114.32892359958899, -42.2515553253492]}}, {"type": "Feature", "properties": {"norad_id": 67222, "name": "DISKSAT D", "group": "last-30-days", "lat": -25.086480039918023, "lon": 158.88402970084152, "alt_km": 544.920098910754, "timestamp": "2025-12-20T03:42:46.123802+00:00", "meta": {"OBJECT_NAME": "DISKSAT D", "OBJECT_ID": "2025-305D", "EPOCH": "2025-12-18T07:46:51.908160", "MEAN_MOTION": 15.06357331, "ECCENTRICITY": 0.00088258, "INCLINATION": 45.0527, "RA_OF_ASC_NODE": 320.6724, "ARG_OF_PERICENTER": 241.9782, "MEAN_ANOMALY": 118.0201, "EPHEMERIS_TYPE": 0, "CLASSIFICATION_TYPE": "U", "NORAD_CAT_ID": 67222, "ELEMENT_SET_NO": 999, "REV_AT_EPOCH": 1, "BSTAR": 0.00029211464, "MEAN_MOTION_DOT": 4.13e-05, "MEAN_MOTION_DDOT": 0}, "tle": {"line1": "1 67222U 25305D   25352.32421190  .00004130  00000+0  29211-3 0  9998", "line2": "2 67222  45.0527 320.6724 0008825 241.9782 118.0201 15.06357331    12"}}, "geometry": {"type": "Point", "coordinates": [158.88402970084152, -25.086480039918023]}}, {"type": "Feature", "properties": {"norad_id": 67223, "name": "ELECTRON KICK STAGE R/B", "group": "last-30-days", "lat": 24.668746209747763, "lon": 103.22230348081173, "alt_km": 296.1954542664844, "timestamp": "2025-12-20T03:42:46.123812+00:00", "meta": {"OBJECT_NAME": "ELECTRON KICK STAGE R/B", "OBJECT_ID": "2025-305E", "EPOCH": "2025-12-18T06:11:27.945312", "MEAN_MOTION": 15.48092024, "ECCENTRICITY": 0.01803623, "INCLINATION": 44.9944, "RA_OF_ASC_NODE": 321.2861, "ARG_OF_PERICENTER": 136.421, "MEAN_ANOMALY": 225.1089, "EPHEMERIS_TYPE": 0, "CLASSIFICATION_TYPE": "U", "NORAD_CAT_ID": 67223, "ELEMENT_SET_NO": 999, "REV_AT_EPOCH": 1, "BSTAR": 0.00018043632, "MEAN_MOTION_DOT": 0.00018378, "MEAN_MOTION_DDOT": 0}, "tle": {"line1": "1 67223U 25305E   25352.25796233  .00018378  00000+0  18044-3 0  9995", "line2": "2 67223  44.9944 321.2861 0180362 136.4210 225.1089 15.48092024    19"}}, "geometry": {"type": "Point", "coordinates": [103.22230348081173, 24.668746209747763]}}, {"type": "Feature", "properties": {"norad_id": 67224, "name": "ELECTRON R/B", "group": "last-30-days", "lat": -41.94830102997133, "lon": -165.70880241547846, "alt_km": 235.10068485525608, "timestamp": "2025-12-20T03:42:46.123824+00:00", "meta": {"OBJECT_NAME": "ELECTRON R/B", "OBJECT_ID": "2025-305F", "EPOCH": "2025-12-18T18:27:13.126752", "MEAN_MOTION": 15.64663678, "ECCENTRICITY": 0.0262888, "INCLINATION": 45.0188, "RA_OF_ASC_NODE": 318.3021, "ARG_OF_PERICENTER": 280.1207, "MEAN_ANOMALY": 77.0133, "EPHEMERIS_TYPE": 0, "CLASSIFICATION_TYPE": "U", "NORAD_CAT_ID": 67224, "ELEMENT_SET_NO": 999, "REV_AT_EPOCH": 9, "BSTAR": 0.00022935, "MEAN_MOTION_DOT": 0.00172783, "MEAN_MOTION_DDOT": 8.6369e-06}, "tle": {"line1": "1 67224U 25305F   25352.76890193  .00172783  86369-5  22935-3 0  9995", "line2": "2 67224  45.0188 318.3021 0262888 280.1207  77.0133 15.64663678    93"}}, "geometry": {"type": "Point", "coordinates": [-165.70880241547846, -41.94830102997133]}}]}